XRISM                   
1 57800U 23137A   24279.47455599  .00020108  00000+0  14401-2 0  9990
2 57800  31.0043  29.6549 0008743 219.7983 140.2013 15.03252553 59285
